{"type": "FeatureCollection", "features": [ {"type": "Feature", "properties": {"norad_id": 30878, "name": "FENGYUN 1C DEB", "group": "fengyun-1c-debris", "lat": -6.029547811001326, "lon": 161.6524539209556, "alt_km": 873.3165945119763, "timestamp": "2025-12-06T22:38:43.007483+00:00", "meta": {"OBJECT_NAME": "FENGYUN 1C DEB", "OBJECT_ID": "1999-025AXQ", "EPOCH": "2025-12-05T23:47:43.987776", "MEAN_MOTION": 14.11862148, "ECCENTRICITY": 0.00401968, "INCLINATION": 98.7211, "RA_OF_ASC_NODE": 341.6558, "ARG_OF_PERICENTER": 313.8536, "MEAN_ANOMALY": 76.1061, "EPHEMERIS_TYPE": 0, "CLASSIFICATION_TYPE": "U", "NORAD_CAT_ID": 30878, "ELEMENT_SET_NO": 999, "REV_AT_EPOCH": 96272, "BSTAR": 0.00091641676, "MEAN_MOTION_DOT": 1.643e-05, "MEAN_MOTION_DDOT": 0}, "tle": {"line1": "1 30878U 99025AXQ 25339.99148134  .00001643  00000+0  91642-3 0  9990", "line2": "2 30878  98.7211 341.6558 0040196 313.8536  76.1061 14.11862148962720"}}, "geometry": {"type": "Point", "coordinates": [161.6524539209556, -6.029547811001326]}}, {"type": "Feature", "properties": {"norad_id": 30879, "name": "FENGYUN 1C DEB", "group": "fengyun-1c-debris", "lat": 76.16058237842309, "lon": 58.765281374822024, "alt_km": 801.0381821055498, "timestamp": "2025-12-06T22:38:43.007493+00:00", "meta": {"OBJECT_NAME": "FENGYUN 1C DEB", "OBJECT_ID": "1999-025AXR", "EPOCH": "2025-12-05T13:26:26.568672", "MEAN_MOTION": 14.66714068, "ECCENTRICITY": 0.02045637, "INCLINATION": 99.352, "RA_OF_ASC_NODE": 195.2022, "ARG_OF_PERICENTER": 301.8719, "MEAN_ANOMALY": 56.2717, "EPHEMERIS_TYPE": 0, "CLASSIFICATION_TYPE": "U", "NORAD_CAT_ID": 30879, "ELEMENT_SET_NO": 999, "REV_AT_EPOCH": 61834, "BSTAR": 0.0065419798, "MEAN_MOTION_DOT": 0.00050105, "MEAN_MOTION_DDOT": 0}, "tle": {"line1": "1 30879U 99025AXR 25339.56002973  .00050105  00000+0  65420-2 0  9995", "line2": "2 30879  99.3520 195.2022 0204563 301.8719  56.2717 14.66714068618340"}}, "geometry": {"type": "Point", "coordinates": [58.765281374822024, 76.16058237842309]}}, {"type": "Feature", "properties": {"norad_id": 30880, "name": "FENGYUN 1C DEB", "group": "fengyun-1c-debris", "lat": 52.16809191125795, "lon": 41.26840857929585, "alt_km": 796.2495814330605, "timestamp": "2025-12-06T22:38:43.007503+00:00", "meta": {"OBJECT_NAME": "FENGYUN 1C DEB", "OBJECT_ID": "1999-025AXS", "EPOCH": "2025-12-06T10:36:19.738368", "MEAN_MOTION": 14.25540941, "ECCENTRICITY": 0.00226782, "INCLINATION": 98.7954, "RA_OF_ASC_NODE": 52.2655, "ARG_OF_PERICENTER": 124.9465, "MEAN_ANOMALY": 235.3848, "EPHEMERIS_TYPE": 0, "CLASSIFICATION_TYPE": "U", "NORAD_CAT_ID": 30880, "ELEMENT_SET_NO": 999, "REV_AT_EPOCH": 96624, "BSTAR": 0.0025440611, "MEAN_MOTION_DOT": 5.993e-05, "MEAN_MOTION_DDOT": 0}, "tle": {"line1": "1 30880U 99025AXS 25340.44189512  .00005993  00000+0  25441-2 0  9995", "line2": "2 30880  98.7954  52.2655 0022678 124.9465 235.3848 14.25540941966249"}}, "geometry": {"type": "Point", "coordinates": [41.26840857929585, 52.16809191125795]}}, {"type": "Feature", "properties": {"norad_id": 30882, "name": "FENGYUN 1C DEB", "group": "fengyun-1c-debris", "lat": 71.05273545312802, "lon": 12.278711127474471, "alt_km": 496.88176547368766, "timestamp": "2025-12-06T22:38:43.007513+00:00", "meta": {"OBJECT_NAME": "FENGYUN 1C DEB", "OBJECT_ID": "1999-025AXU", "EPOCH": "2025-12-06T09:24:14.577696", "MEAN_MOTION": 14.8652181, "ECCENTRICITY": 0.01541556, "INCLINATION": 97.9441, "RA_OF_ASC_NODE": 35.7287, "ARG_OF_PERICENTER": 61.5337, "MEAN_ANOMALY": 300.131, "EPHEMERIS_TYPE": 0, "CLASSIFICATION_TYPE": "U", "NORAD_CAT_ID": 30882, "ELEMENT_SET_NO": 999, "REV_AT_EPOCH": 99560, "BSTAR": 0.0016174098, "MEAN_MOTION_DOT": 0.00017763, "MEAN_MOTION_DDOT": 0}, "tle": {"line1": "1 30882U 99025AXU 25340.39183539  .00017763  00000+0  16174-2 0  9995", "line2": "2 30882  97.9441  35.7287 0154155  61.5337 300.1310 14.86521810995608"}}, "geometry": {"type": "Point", "coordinates": [12.278711127474471, 71.05273545312802]}}, {"type": "Feature", "properties": {"norad_id": 30883, "name": "FENGYUN 1C DEB", "group": "fengyun-1c-debris", "lat": 27.73487371099863, "lon": -157.16780516653637, "alt_km": 826.2700763715002, "timestamp": "2025-12-06T22:38:43.007523+00:00", "meta": {"OBJECT_NAME": "FENGYUN 1C DEB", "OBJECT_ID": "1999-025AXV", "EPOCH": "2025-12-05T21:18:04.574880", "MEAN_MOTION": 14.14540801, "ECCENTRICITY": 0.01115357, "INCLINATION": 98.3627, "RA_OF_ASC_NODE": 17.4071, "ARG_OF_PERICENTER": 233.7832, "MEAN_ANOMALY": 304.8329, "EPHEMERIS_TYPE": 0, "CLASSIFICATION_TYPE": "U", "NORAD_CAT_ID": 30883, "ELEMENT_SET_NO": 999, "REV_AT_EPOCH": 96820, "BSTAR": 0.00034687594, "MEAN_MOTION_DOT": 6.66e-06, "MEAN_MOTION_DDOT": 0}, "tle": {"line1": "1 30883U 99025AXV 25339.88755295  .00000666  00000+0  34688-3 0  9997", "line2": "2 30883  98.3627  17.4071 0111535 233.7832 304.8329 14.14540801968205"}}, "geometry": {"type": "Point", "coordinates": [-157.16780516653637, 27.73487371099863]}}, {"type": "Feature", "properties": {"norad_id": 30884, "name": "FENGYUN 1C DEB", "group": "fengyun-1c-debris", "lat": -38.18334518900174, "lon": -18.70189936830498, "alt_km": 616.8841223853296, "timestamp": "2025-12-06T22:38:43.007534+00:00", "meta": {"OBJECT_NAME": "FENGYUN 1C DEB", "OBJECT_ID": "1999-025AXW", "EPOCH": "2025-12-05T22:22:04.032768", "MEAN_MOTION": 14.73183421, "ECCENTRICITY": 0.00678958, "INCLINATION": 98.8896, "RA_OF_ASC_NODE": 333.1207, "ARG_OF_PERICENTER": 357.0817, "MEAN_ANOMALY": 2.9982, "EPHEMERIS_TYPE": 0, "CLASSIFICATION_TYPE": "U", "NORAD_CAT_ID": 30884, "ELEMENT_SET_NO": 999, "REV_AT_EPOCH": 98561, "BSTAR": 0.0032996075, "MEAN_MOTION_DOT": 0.00022079, "MEAN_MOTION_DDOT": 0}, "tle": {"line1": "1 30884U 99025AXW 25339.93199112  .00022079  00000+0  32996-2 0  9995", "line2": "2 30884  98.8896 333.1207 0067895 357.0817   2.9982 14.73183421985611"}}, "geometry": {"type": "Point", "coordinates": [-18.70189936830498, -38.18334518900174]}}, {"type": "Feature", "properties": {"norad_id": 30885, "name": "FENGYUN 1C DEB", "group": "fengyun-1c-debris", "lat": 34.830751550404656, "lon": 7.416292119623833, "alt_km": 727.0533566580252, "timestamp": "2025-12-06T22:38:43.007544+00:00", "meta": {"OBJECT_NAME": "FENGYUN 1C DEB", "OBJECT_ID": "1999-025AXX", "EPOCH": "2025-12-06T07:54:26.189856", "MEAN_MOTION": 14.49233963, "ECCENTRICITY": 0.00543237, "INCLINATION": 99.026, "RA_OF_ASC_NODE": 180.4097, "ARG_OF_PERICENTER": 238.6766, "MEAN_ANOMALY": 304.5103, "EPHEMERIS_TYPE": 0, "CLASSIFICATION_TYPE": "U", "NORAD_CAT_ID": 30885, "ELEMENT_SET_NO": 999, "REV_AT_EPOCH": 96884, "BSTAR": 0.0048912361, "MEAN_MOTION_DOT": 0.00018991, "MEAN_MOTION_DDOT": 0}, "tle": {"line1": "1 30885U 99025AXX 25340.32946979  .00018991  00000+0  48912-2 0  9995", "line2": "2 30885  99.0260 180.4097 0054323 238.6766 304.5103 14.49233963968841"}}, "geometry": {"type": "Point", "coordinates": [7.416292119623833, 34.830751550404656]}}, {"type": "Feature", "properties": {"norad_id": 30886, "name": "FENGYUN 1C DEB", "group": "fengyun-1c-debris", "lat": -50.56028903318525, "lon": 42.283676189931285, "alt_km": 848.9588753524722, "timestamp": "2025-12-06T22:38:43.007553+00:00", "meta": {"OBJECT_NAME": "FENGYUN 1C DEB", "OBJECT_ID": "1999-025AXY", "EPOCH": "2025-12-05T21:55:56.347104", "MEAN_MOTION": 14.22701036, "ECCENTRICITY": 0.00360282, "INCLINATION": 99.2091, "RA_OF_ASC_NODE": 232.5827, "ARG_OF_PERICENTER": 52.9354, "MEAN_ANOMALY": 307.5108, "EPHEMERIS_TYPE": 0, "CLASSIFICATION_TYPE": "U", "NORAD_CAT_ID": 30886, "ELEMENT_SET_NO": 999, "REV_AT_EPOCH": 96299, "BSTAR": 0.0030105607, "MEAN_MOTION_DOT": 6.745e-05, "MEAN_MOTION_DDOT": 0}, "tle": {"line1": "1 30886U 99025AXY 25339.91384661  .00006745  00000+0  30106-2 0  9993", "line2": "2 30886  99.2091 232.5827 0036028  52.9354 307.5108 14.22701036962998"}}, "geometry": {"type": "Point", "coordinates": [42.283676189931285, -50.56028903318525]}}, {"type": "Feature", "properties": {"norad_id": 30887, "name": "FENGYUN 1C DEB", "group": "fengyun-1c-debris", "lat": 75.70008059376428, "lon": -107.83043731354547, "alt_km": 906.7046229663083, "timestamp": "2025-12-06T22:38:43.007563+00:00", "meta": {"OBJECT_NAME": "FENGYUN 1C DEB", "OBJECT_ID": "1999-025AXZ", "EPOCH": "2025-12-06T02:13:32.740320", "MEAN_MOTION": 14.44750931, "ECCENTRICITY": 0.02639567, "INCLINATION": 98.3696, "RA_OF_ASC_NODE": 36.0504, "ARG_OF_PERICENTER": 308.0525, "MEAN_ANOMALY": 49.7111, "EPHEMERIS_TYPE": 0, "CLASSIFICATION_TYPE": "U", "NORAD_CAT_ID": 30887, "ELEMENT_SET_NO": 999, "REV_AT_EPOCH": 98032, "BSTAR": 0.0010161969, "MEAN_MOTION_DOT": 5.363e-05, "MEAN_MOTION_DDOT": 0}, "tle": {"line1": "1 30887U 99025AXZ 25340.09274005  .00005363  00000+0  10162-2 0  9990", "line2": "2 30887  98.3696  36.0504 0263956 308.0525  49.7111 14.44750931980324"}}, "geometry": {"type": "Point", "coordinates": [-107.83043731354547, 75.70008059376428]}}, {"type": "Feature", "properties": {"norad_id": 30888, "name": "FENGYUN 1C DEB", "group": "fengyun-1c-debris", "lat": -22.82571647136875, "lon": -37.406069483404536, "alt_km": 648.3185607591049, "timestamp": "2025-12-06T22:38:43.007573+00:00", "meta": {"OBJECT_NAME": "FENGYUN 1C DEB", "OBJECT_ID": "1999-025AYA", "EPOCH": "2025-12-05T16:12:12.083040", "MEAN_MOTION": 14.93643912, "ECCENTRICITY": 0.00831347, "INCLINATION": 99.482, "RA_OF_ASC_NODE": 317.0321, "ARG_OF_PERICENTER": 173.4686, "MEAN_ANOMALY": 186.7633, "EPHEMERIS_TYPE": 0, "CLASSIFICATION_TYPE": "U", "NORAD_CAT_ID": 30888, "ELEMENT_SET_NO": 999, "REV_AT_EPOCH": 99820, "BSTAR": 0.001845974, "MEAN_MOTION_DOT": 0.00020844, "MEAN_MOTION_DDOT": 0}, "tle": {"line1": "1 30888U 99025AYA 25339.67513985  .00020844  00000+0  18460-2 0  9996", "line2": "2 30888  99.4820 317.0321 0083134 173.4686 186.7633 14.93643912998206"}}, "geometry": {"type": "Point", "coordinates": [-37.406069483404536, -22.82571647136875]}}]}